[
  {
    "OBJECT_NAME": "STARLINK-3360",
    "OBJECT_ID": "22005AX",
    "EPOCH": "2025-11-10T11:48:09.183744",
    "MEAN_MOTION": 15.08838958,
    "ECCENTRICITY": 0.0001468,
    "INCLINATION": 53.2141,
    "RA_OF_ASC_NODE": 124.0385,
    "ARG_OF_PERICENTER": 90.0052,
    "MEAN_ANOMALY": 270.1108,
    "EPHEMERIS_TYPE": 0,
    "CLASSIFICATION_TYPE": "U",
    "NORAD_CAT_ID": 51149,
    "ELEMENT_SET_NO": 999,
    "REV_AT_EPOCH": 21060,
    "BSTAR": 3.6591e-05,
    "MEAN_MOTION_DOT": 2.94e-06,
    "MEAN_MOTION_DDOT": 0.0,
    "TLE_LINE1": "1 51149U 22005AX  25314.49177296  .00000294  00000+0  36591-4 0  9991",
    "TLE_LINE2": "2 51149  53.2141 124.0385 0001468  90.0052 270.1108 15.08838958210609",
    "COMMENT": "Grouped by shell and plane from TLE"
  },
  {
    "OBJECT_NAME": "STARLINK-3364",
    "OBJECT_ID": "22005BA",
    "EPOCH": "2025-11-10T17:36:29.320416",
    "MEAN_MOTION": 15.08846478,
    "ECCENTRICITY": 0.0002037,
    "INCLINATION": 53.2161,
    "RA_OF_ASC_NODE": 122.7488,
    "ARG_OF_PERICENTER": 93.8369,
    "MEAN_ANOMALY": 266.2856,
    "EPHEMERIS_TYPE": 0,
    "CLASSIFICATION_TYPE": "U",
    "NORAD_CAT_ID": 51152,
    "ELEMENT_SET_NO": 999,
    "REV_AT_EPOCH": 21064,
    "BSTAR": 0.00012313,
    "MEAN_MOTION_DOT": 1.672e-05,
    "MEAN_MOTION_DDOT": 0.0,
    "TLE_LINE1": "1 51152U 22005BA  25314.73367269  .00001672  00000+0  12313-3 0  9999",
    "TLE_LINE2": "2 51152  53.2161 122.7488 0002037  93.8369 266.2856 15.08846478210645",
    "COMMENT": "Grouped by shell and plane from TLE"
  },
  {
    "OBJECT_NAME": "STARLINK-3512",
    "OBJECT_ID": "22016AF",
    "EPOCH": "2025-11-10T11:30:53.568288",
    "MEAN_MOTION": 15.0884385,
    "ECCENTRICITY": 0.00014,
    "INCLINATION": 53.2153,
    "RA_OF_ASC_NODE": 124.1967,
    "ARG_OF_PERICENTER": 88.5111,
    "MEAN_ANOMALY": 271.6042,
    "EPHEMERIS_TYPE": 0,
    "CLASSIFICATION_TYPE": "U",
    "NORAD_CAT_ID": 51743,
    "ELEMENT_SET_NO": 999,
    "REV_AT_EPOCH": 20570,
    "BSTAR": 5.3567e-05,
    "MEAN_MOTION_DOT": 5.65e-06,
    "MEAN_MOTION_DDOT": 0.0,
    "TLE_LINE1": "1 51743U 22016AF  25314.47978667  .00000565  00000+0  53567-4 0  9995",
    "TLE_LINE2": "2 51743  53.2153 124.1967 0001400  88.5111 271.6042 15.08843850205708",
    "COMMENT": "Grouped by shell and plane from TLE"
  },
  {
    "OBJECT_NAME": "STARLINK-3502",
    "OBJECT_ID": "22016AJ",
    "EPOCH": "2025-11-10T21:09:54.071712",
    "MEAN_MOTION": 15.08841185,
    "ECCENTRICITY": 0.0001268,
    "INCLINATION": 53.2165,
    "RA_OF_ASC_NODE": 122.4783,
    "ARG_OF_PERICENTER": 93.1341,
    "MEAN_ANOMALY": 266.9797,
    "EPHEMERIS_TYPE": 0,
    "CLASSIFICATION_TYPE": "U",
    "NORAD_CAT_ID": 51746,
    "ELEMENT_SET_NO": 999,
    "REV_AT_EPOCH": 20576,
    "BSTAR": 5.1234000000000004e-05,
    "MEAN_MOTION_DOT": 5.28e-06,
    "MEAN_MOTION_DDOT": 0.0,
    "TLE_LINE1": "1 51746U 22016AJ  25314.88187583  .00000528  00000+0  51234-4 0  9990",
    "TLE_LINE2": "2 51746  53.2165 122.4783 0001268  93.1341 266.9797 15.08841185205769",
    "COMMENT": "Grouped by shell and plane from TLE"
  },
  {
    "OBJECT_NAME": "STARLINK-3501",
    "OBJECT_ID": "22016AL",
    "EPOCH": "2025-11-11T04:54:52.213536",
    "MEAN_MOTION": 15.0884235,
    "ECCENTRICITY": 0.0001483,
    "INCLINATION": 53.2157,
    "RA_OF_ASC_NODE": 121.02,
    "ARG_OF_PERICENTER": 71.7979,
    "MEAN_ANOMALY": 288.3175,
    "EPHEMERIS_TYPE": 0,
    "CLASSIFICATION_TYPE": "U",
    "NORAD_CAT_ID": 51748,
    "ELEMENT_SET_NO": 999,
    "REV_AT_EPOCH": 20581,
    "BSTAR": 0.00018879000000000001,
    "MEAN_MOTION_DOT": 2.718e-05,
    "MEAN_MOTION_DDOT": 0.0,
    "TLE_LINE1": "1 51748U 22016AL  25315.20477099  .00002718  00000+0  18879-3 0  9993",
    "TLE_LINE2": "2 51748  53.2157 121.0200 0001483  71.7979 288.3175 15.08842350205818",
    "COMMENT": "Grouped by shell and plane from TLE"
  },
  {
    "OBJECT_NAME": "STARLINK-3505",
    "OBJECT_ID": "22016AN",
    "EPOCH": "2025-11-10T20:48:42.454656",
    "MEAN_MOTION": 15.08851283,
    "ECCENTRICITY": 0.0001586,
    "INCLINATION": 53.2139,
    "RA_OF_ASC_NODE": 122.5452,
    "ARG_OF_PERICENTER": 87.9091,
    "MEAN_ANOMALY": 272.2083,
    "EPHEMERIS_TYPE": 0,
    "CLASSIFICATION_TYPE": "U",
    "NORAD_CAT_ID": 51750,
    "ELEMENT_SET_NO": 999,
    "REV_AT_EPOCH": 20576,
    "BSTAR": 1.0368e-05,
    "MEAN_MOTION_DOT": -1.23e-06,
    "MEAN_MOTION_DDOT": 0.0,
    "TLE_LINE1": "1 51750U 22016AN  25314.86715804 -.00000123  00000+0  10368-4 0  9991",
    "TLE_LINE2": "2 51750  53.2139 122.5452 0001586  87.9091 272.2083 15.08851283205763",
    "COMMENT": "Grouped by shell and plane from TLE"
  },
  {
    "OBJECT_NAME": "STARLINK-3506",
    "OBJECT_ID": "22016AP",
    "EPOCH": "2025-11-10T17:53:49.789824",
    "MEAN_MOTION": 15.08843779,
    "ECCENTRICITY": 0.0001272,
    "INCLINATION": 53.2149,
    "RA_OF_ASC_NODE": 123.0899,
    "ARG_OF_PERICENTER": 95.753,
    "MEAN_ANOMALY": 264.3608,
    "EPHEMERIS_TYPE": 0,
    "CLASSIFICATION_TYPE": "U",
    "NORAD_CAT_ID": 51751,
    "ELEMENT_SET_NO": 999,
    "REV_AT_EPOCH": 20574,
    "BSTAR": 5.4848e-05,
    "MEAN_MOTION_DOT": 5.85e-06,
    "MEAN_MOTION_DDOT": 0.0,
    "TLE_LINE1": "1 51751U 22016AP  25314.74571516  .00000585  00000+0  54848-4 0  9991",
    "TLE_LINE2": "2 51751  53.2149 123.0899 0001272  95.7530 264.3608 15.08843779205747",
    "COMMENT": "Grouped by shell and plane from TLE"
  },
  {
    "OBJECT_NAME": "STARLINK-3511",
    "OBJECT_ID": "22016AQ",
    "EPOCH": "2025-11-11T04:29:43.396512",
    "MEAN_MOTION": 15.08840367,
    "ECCENTRICITY": 0.0001549,
    "INCLINATION": 53.2164,
    "RA_OF_ASC_NODE": 121.0313,
    "ARG_OF_PERICENTER": 89.2092,
    "MEAN_ANOMALY": 270.9078,
    "EPHEMERIS_TYPE": 0,
    "CLASSIFICATION_TYPE": "U",
    "NORAD_CAT_ID": 51752,
    "ELEMENT_SET_NO": 999,
    "REV_AT_EPOCH": 20581,
    "BSTAR": 6.9763e-05,
    "MEAN_MOTION_DOT": 8.22e-06,
    "MEAN_MOTION_DDOT": 0.0,
    "TLE_LINE1": "1 51752U 22016AQ  25315.18730783  .00000822  00000+0  69763-4 0  9990",
    "TLE_LINE2": "2 51752  53.2164 121.0313 0001549  89.2092 270.9078 15.08840367205814",
    "COMMENT": "Grouped by shell and plane from TLE"
  },
  {
    "OBJECT_NAME": "STARLINK-3507",
    "OBJECT_ID": "22016AR",
    "EPOCH": "2025-11-11T04:50:55.816224",
    "MEAN_MOTION": 15.08846954,
    "ECCENTRICITY": 0.0001392,
    "INCLINATION": 53.2165,
    "RA_OF_ASC_NODE": 121.0407,
    "ARG_OF_PERICENTER": 89.4281,
    "MEAN_ANOMALY": 270.687,
    "EPHEMERIS_TYPE": 0,
    "CLASSIFICATION_TYPE": "U",
    "NORAD_CAT_ID": 51753,
    "ELEMENT_SET_NO": 999,
    "REV_AT_EPOCH": 20581,
    "BSTAR": 0.00011179,
    "MEAN_MOTION_DOT": 1.492e-05,
    "MEAN_MOTION_DDOT": 0.0,
    "TLE_LINE1": "1 51753U 22016AR  25315.20203491  .00001492  00000+0  11179-3 0  9996",
    "TLE_LINE2": "2 51753  53.2165 121.0407 0001392  89.4281 270.6870 15.08846954205813",
    "COMMENT": "Grouped by shell and plane from TLE"
  },
  {
    "OBJECT_NAME": "STARLINK-3457",
    "OBJECT_ID": "22016AS",
    "EPOCH": "2025-11-10T12:02:39.934176",
    "MEAN_MOTION": 15.08837099,
    "ECCENTRICITY": 0.0001204,
    "INCLINATION": 53.2165,
    "RA_OF_ASC_NODE": 123.9347,
    "ARG_OF_PERICENTER": 91.2202,
    "MEAN_ANOMALY": 268.8928,
    "EPHEMERIS_TYPE": 0,
    "CLASSIFICATION_TYPE": "U",
    "NORAD_CAT_ID": 51754,
    "ELEMENT_SET_NO": 999,
    "REV_AT_EPOCH": 20571,
    "BSTAR": 7.946e-05,
    "MEAN_MOTION_DOT": 9.77e-06,
    "MEAN_MOTION_DDOT": 0.0,
    "TLE_LINE1": "1 51754U 22016AS  25314.50185109  .00000977  00000+0  79460-4 0  9999",
    "TLE_LINE2": "2 51754  53.2165 123.9347 0001204  91.2202 268.8928 15.08837099205716",
    "COMMENT": "Grouped by shell and plane from TLE"
  },
  {
    "OBJECT_NAME": "STARLINK-3460",
    "OBJECT_ID": "22016AT",
    "EPOCH": "2025-11-11T04:33:39.160512",
    "MEAN_MOTION": 15.08843155,
    "ECCENTRICITY": 0.0001366,
    "INCLINATION": 53.2163,
    "RA_OF_ASC_NODE": 121.085,
    "ARG_OF_PERICENTER": 88.1581,
    "MEAN_ANOMALY": 271.9568,
    "EPHEMERIS_TYPE": 0,
    "CLASSIFICATION_TYPE": "U",
    "NORAD_CAT_ID": 51755,
    "ELEMENT_SET_NO": 999,
    "REV_AT_EPOCH": 20581,
    "BSTAR": 7.375e-05,
    "MEAN_MOTION_DOT": 8.86e-06,
    "MEAN_MOTION_DDOT": 0.0,
    "TLE_LINE1": "1 51755U 22016AT  25315.19003658  .00000886  00000+0  73750-4 0  9999",
    "TLE_LINE2": "2 51755  53.2163 121.0850 0001366  88.1581 271.9568 15.08843155205813",
    "COMMENT": "Grouped by shell and plane from TLE"
  },
  {
    "OBJECT_NAME": "STARLINK-3513",
    "OBJECT_ID": "22016AU",
    "EPOCH": "2025-11-11T03:51:15.842592",
    "MEAN_MOTION": 15.08839757,
    "ECCENTRICITY": 0.0001497,
    "INCLINATION": 53.2175,
    "RA_OF_ASC_NODE": 121.2184,
    "ARG_OF_PERICENTER": 89.8831,
    "MEAN_ANOMALY": 270.2333,
    "EPHEMERIS_TYPE": 0,
    "CLASSIFICATION_TYPE": "U",
    "NORAD_CAT_ID": 51756,
    "ELEMENT_SET_NO": 999,
    "REV_AT_EPOCH": 20581,
    "BSTAR": 6.218900000000001e-05,
    "MEAN_MOTION_DOT": 7.02e-06,
    "MEAN_MOTION_DDOT": 0.0,
    "TLE_LINE1": "1 51756U 22016AU  25315.16060003  .00000702  00000+0  62189-4 0  9995",
    "TLE_LINE2": "2 51756  53.2175 121.2184 0001497  89.8831 270.2333 15.08839757205815",
    "COMMENT": "Grouped by shell and plane from TLE"
  },
  {
    "OBJECT_NAME": "STARLINK-3459",
    "OBJECT_ID": "22016AV",
    "EPOCH": "2025-11-11T03:47:20.604768",
    "MEAN_MOTION": 15.08838724,
    "ECCENTRICITY": 0.0001355,
    "INCLINATION": 53.2169,
    "RA_OF_ASC_NODE": 121.2409,
    "ARG_OF_PERICENTER": 89.8622,
    "MEAN_ANOMALY": 270.2525,
    "EPHEMERIS_TYPE": 0,
    "CLASSIFICATION_TYPE": "U",
    "NORAD_CAT_ID": 51757,
    "ELEMENT_SET_NO": 999,
    "REV_AT_EPOCH": 20581,
    "BSTAR": 3.0178e-05,
    "MEAN_MOTION_DOT": 1.92e-06,
    "MEAN_MOTION_DDOT": 0.0,
    "TLE_LINE1": "1 51757U 22016AV  25315.15787737  .00000192  00000+0  30178-4 0  9991",
    "TLE_LINE2": "2 51757  53.2169 121.2409 0001355  89.8622 270.2525 15.08838724205816",
    "COMMENT": "Grouped by shell and plane from TLE"
  }
]